{"type":"FeatureCollection","features":[{"type":"Feature","id":28,"geometry":{"type":"Polygon","coordinates":[[[41.985574292393771,34.348653714469513],[41.986395139879562,34.347571480274532],[41.990731646190603,34.341853550483656],[41.994286027479063,34.3371664287261],[41.998941037513795,34.339228762768904],[41.994814077040154,34.344567182004795],[41.990190197110678,34.350547469557746],[41.989766900702485,34.351095630951889],[41.985574292393771,34.348653714469513]]]},"properties":{"OBJECTID":28,"OID_":0,"Shape_Leng":0,"Name":"ديني","اسم_المؤسس":"مقبرة","type":" ","TYPECODE":" ","Area":0,"AreaH":0,"Shape_Length":4028.2900132201767,"Shape_Area":733570.63195910025}},{"type":"Feature","id":41,"geometry":{"type":"Polygon","coordinates":[[[41.989649614451977,34.351247512996601],[41.986851278742265,34.354871085224261],[41.982733083528053,34.352399422002783],[41.98545845392394,34.348806437968506],[41.989649614451977,34.351247512996601]]]},"properties":{"OBJECTID":41,"OID_":0,"Shape_Leng":0,"Name":"ديني","اسم_المؤسس":"مقبرة","type":" ","TYPECODE":" ","Area":0,"AreaH":0,"Shape_Length":1888.0757900399685,"Shape_Area":222468.18133180335}}]}