{"type":"FeatureCollection","features":[{"type":"Feature","id":1,"geometry":{"type":"Polygon","coordinates":[[[41.952121285024418,34.356518457856048],[41.95212695013489,34.356524750820363],[41.952131210149695,34.356531763665103],[41.952133939111562,34.356539283094122],[41.952135050801807,34.356547082232488],[41.952134512921326,34.35655492208695],[41.952132342166514,34.356562566087241],[41.952128603174906,34.356569781012901],[41.95212340999052,34.356576347774762],[41.9521169219096,34.356582066923615],[41.950576709381771,34.35772186434577],[41.950569122294858,34.357726562500012],[41.950560666136944,34.357730096275347],[41.950551598009227,34.357732358512294],[41.950542194833325,34.357733280333555],[41.950532740414076,34.357732834160416],[41.950523524353457,34.357731033738816],[41.95051482461141,34.357727932757399],[41.950506906451388,34.357723625774234],[41.950500010367946,34.357718244902436],[41.94912566909619,34.356440886718111],[41.949120511179068,34.356435258332141],[41.949116476751286,34.356429030466018],[41.949113667927122,34.35642235660039],[41.949112152385112,34.356415400060214],[41.949111967648882,34.356408332108728],[41.949113117671331,34.356401327522754],[41.949115575871616,34.356394558209665],[41.949119280728148,34.356388191510909],[41.949124139901485,34.356382383792692],[41.949130035569624,34.356377277613213],[41.950710775741641,34.355207503673867],[41.952121285024418,34.356518457856048]]]},"properties":{"OBJECTID":1,"OID_":0,"Shape_Leng":793.53395064599999,"Name":"خدمات","اسم_المؤسس":" ","type":"Services","TYPECODE":"Sectoral center","Area":0.039983623002099997,"AreaH":3.9983623002100002,"Shape_Length":793.53390159051673,"Shape_Area":39983.618545997568}},{"type":"Feature","id":10,"geometry":{"type":"Polygon","coordinates":[[[41.983247562607204,34.365330267280648],[41.982860318621597,34.365873099966009],[41.982401104533757,34.365632387887075],[41.982788349519652,34.365089556568158],[41.983247562607204,34.365330267280648]]]},"properties":{"OBJECTID":10,"OID_":0,"Shape_Leng":239.99995770300001,"Name":"خدمات","اسم_المؤسس":"كراج النقل الموحد","type":"Adminstration","TYPECODE":"Adminstration","Area":0.064669938524800005,"AreaH":6.4669938524799999,"Shape_Length":239.99999841827872,"Shape_Area":3498.4753115235881}},{"type":"Feature","id":26,"geometry":{"type":"Polygon","coordinates":[[[41.993105941507238,34.356967700268228],[41.993105970222459,34.356967713086348],[41.994082893565853,34.357382427701666],[41.993585750112395,34.358195258666747],[41.992608820218088,34.357780539564025],[41.992608790352612,34.357780524971176],[41.991631867553416,34.357365799381689],[41.992129027366261,34.356552977311921],[41.993105941507238,34.356967700268228]]]},"properties":{"OBJECTID":26,"OID_":0,"Shape_Leng":404.35313749400001,"Name":"صناعي","اسم_المؤسس":"مخازن البذور والاسمدة / زراعة عنه","type":" ","TYPECODE":" ","Area":0,"AreaH":0,"Shape_Length":606.38754112115726,"Shape_Area":20437.210312411866}},{"type":"Feature","id":33,"geometry":{"type":"Polygon","coordinates":[[[41.988910274180803,34.361911415074879],[41.988571095217139,34.362263316644047],[41.988162114437294,34.361966801293917],[41.988501294097873,34.361614900818324],[41.988910274180803,34.361911415074879]]]},"properties":{"OBJECTID":33,"OID_":null,"Shape_Leng":null,"Name":null,"اسم_المؤسس":null,"type":null,"TYPECODE":null,"Area":null,"AreaH":null,"Shape_Length":199.99994319522446,"Shape_Area":2497.568044693488}},{"type":"Feature","id":35,"geometry":{"type":"Polygon","coordinates":[[[41.996031762141094,34.364365015250868],[41.995991420643335,34.364338249818843],[41.995960017196339,34.364319685273649],[41.995957410096764,34.364318084278729],[41.995944794504858,34.364310424163271],[41.995932128710471,34.364302819359558],[41.995919414917779,34.364295270714983],[41.995906653126731,34.36428777822951],[41.995893843369402,34.364280342803724],[41.995880985613717,34.364272963537026],[41.995955909164891,34.363750012285124],[41.996655848209279,34.363932314339515],[41.996975302832844,34.364089651023612],[41.996801284512784,34.364224040650214],[41.996689812374385,34.364310127127645],[41.996647841688812,34.364275654411855],[41.996400315335727,34.364070623431317],[41.996031762141094,34.364365015250868]]]},"properties":{"OBJECTID":35,"OID_":null,"Shape_Leng":null,"Name":null,"اسم_المؤسس":null,"type":null,"TYPECODE":null,"Area":null,"AreaH":null,"Shape_Length":298.04949840623101,"Shape_Area":3546.8512476552996}},{"type":"Feature","id":38,"geometry":{"type":"Polygon","coordinates":[[[41.978241012973967,34.37976608881975],[41.977540688400289,34.380454600923791],[41.976870965590194,34.379974458701028],[41.977106412987411,34.379912189253417],[41.977340627016602,34.379845430362678],[41.977573522082771,34.379774206426276],[41.977805013072945,34.379698543473438],[41.978035015387277,34.379618469155673],[41.978241012973967,34.37976608881975]]]},"properties":{"OBJECTID":38,"OID_":null,"Shape_Leng":null,"Name":null,"اسم_المؤسس":null,"type":null,"TYPECODE":null,"Area":null,"AreaH":null,"Shape_Length":320.71813436074689,"Shape_Area":5203.1549865096877}},{"type":"Feature","id":40,"geometry":{"type":"Polygon","coordinates":[[[41.961294849415616,34.360870241542685],[41.961062556513447,34.361174844413448],[41.960534555345859,34.360897926158287],[41.960534095768431,34.360897684891434],[41.960766389971639,34.36059308295372],[41.960766848461908,34.360593324246068],[41.961294849415616,34.360870241542685]]]},"properties":{"OBJECTID":40,"OID_":null,"Shape_Leng":null,"Name":null,"اسم_المؤسس":null,"type":null,"TYPECODE":null,"Area":null,"AreaH":null,"Shape_Length":195.09991992094277,"Shape_Area":2301.9964382969538}},{"type":"Feature","id":41,"geometry":{"type":"Polygon","coordinates":[[[41.958943296854216,34.362984441748999],[41.958710984298165,34.363289038232445],[41.958182970746762,34.363012106714173],[41.958415289041838,34.362707513759979],[41.958943296854216,34.362984441748999]]]},"properties":{"OBJECTID":41,"OID_":null,"Shape_Leng":null,"Name":null,"اسم_المؤسس":null,"type":null,"TYPECODE":null,"Area":null,"AreaH":null,"Shape_Length":195.00060818426488,"Shape_Area":2300.0121309035326}},{"type":"Feature","id":42,"geometry":{"type":"Polygon","coordinates":[[[41.958943296854216,34.362984441748999],[41.959471308012105,34.363261366364299],[41.959239002281286,34.363565966350691],[41.958710984298165,34.363289038232445],[41.958943296854216,34.362984441748999]]]},"properties":{"OBJECTID":42,"OID_":null,"Shape_Leng":null,"Name":null,"اسم_المؤسس":null,"type":null,"TYPECODE":null,"Area":null,"AreaH":null,"Shape_Length":195.00057378209317,"Shape_Area":2300.0113947993236}},{"type":"Feature","id":43,"geometry":{"type":"Polygon","coordinates":[[[42.008731910092862,34.358545937268048],[42.008099565433781,34.358050532681069],[42.009315739935531,34.358045114071828],[42.008731910092862,34.358545937268048]]]},"properties":{"OBJECTID":43,"OID_":null,"Shape_Leng":null,"Name":null,"اسم_المؤسس":null,"type":null,"TYPECODE":null,"Area":null,"AreaH":null,"Shape_Length":269.32911366147493,"Shape_Area":3095.0695702211851}},{"type":"Feature","id":45,"geometry":{"type":"Polygon","coordinates":[[[42.00736088408518,34.360642361868194],[42.007356594634913,34.360645450930143],[42.007351720572458,34.360647875624792],[42.007346416820674,34.360649560933091],[42.00734084032235,34.360650457926525],[42.007335157448708,34.360650538176607],[42.007329547354033,34.36064979637657],[42.007324175148113,34.360648260014848],[42.007319209810476,34.360645973611092],[42.007314794040568,34.360643006668596],[42.007103898901036,34.360473917674526],[42.007010166594739,34.360398768114401],[42.007006444910175,34.36039520991212],[42.007003522275632,34.3603911696529],[42.007001487840256,34.360386769535992],[42.007000407312489,34.36038214495639],[42.007000311713917,34.360377433964665],[42.00700120297018,34.360372781636478],[42.007003055664434,34.360368328311424],[42.007005812596766,34.360364206998049],[42.007009390310778,34.360360545942157],[42.007137767323677,34.360250428404996],[42.007658827993048,34.359803474174598],[42.007663119466088,34.359800382349341],[42.007667991396012,34.359797960400243],[42.007673296205994,34.359796275954857],[42.007678871525457,34.359795378075425],[42.00768455437197,34.359795298712996],[42.007690163228325,34.359796037824594],[42.007695536502197,34.359797575046819],[42.007700503936739,34.359799860483633],[42.007704916446897,34.359802828394876],[42.007798647542131,34.359877977457337],[42.008009543486168,34.360047065244864],[42.008013266312481,34.360050624289194],[42.008016190002188,34.36005466269463],[42.008018224480026,34.36005906279248],[42.008019305122012,34.360063689161755],[42.008019400775957,34.360068400149899],[42.008018509578569,34.360073052482555],[42.008016657009044,34.360077507621206],[42.008013900007541,34.360081625352066],[42.008010319092577,34.360085286514732],[42.007881945733274,34.360195405744847],[42.00736088408518,34.360642361868194]]]},"properties":{"OBJECTID":45,"OID_":null,"Shape_Leng":null,"Name":null,"اسم_المؤسس":null,"type":null,"TYPECODE":null,"Area":null,"AreaH":null,"Shape_Length":268.82629834648611,"Shape_Area":4132.1648808591808}},{"type":"Feature","id":47,"geometry":{"type":"Polygon","coordinates":[[[42.007120181338507,34.362699063541122],[42.007102512320671,34.362730695827111],[42.006066380159254,34.362332685252071],[42.006249179951595,34.362005427531784],[42.007120181338507,34.362699063541122]]]},"properties":{"OBJECTID":47,"OID_":null,"Shape_Leng":null,"Name":null,"اسم_المؤسس":null,"type":null,"TYPECODE":null,"Area":null,"AreaH":null,"Shape_Length":260.14633291600126,"Shape_Area":2306.8930778621302}},{"type":"Feature","id":50,"geometry":{"type":"Polygon","coordinates":[[[41.960436867884809,34.369709170673595],[41.959121178325248,34.368994756039299],[41.960434723989039,34.367275250400354],[41.960502688561697,34.36723550931147],[41.961797072281882,34.367918362925877],[41.960436867884809,34.369709170673595]]]},"properties":{"OBJECTID":50,"OID_":null,"Shape_Leng":null,"Name":null,"اسم_المؤسس":null,"type":null,"TYPECODE":null,"Area":null,"AreaH":null,"Shape_Length":754.37579485286733,"Shape_Area":33773.570395251161}},{"type":"Feature","id":51,"geometry":{"type":"Polygon","coordinates":[[[41.985671006918949,34.374063761693598],[41.985171654511191,34.374152618320274],[41.985087291762675,34.373826670066798],[41.98558664237418,34.373737813877518],[41.985671006918949,34.374063761693598]]]},"properties":{"OBJECTID":51,"OID_":null,"Shape_Leng":null,"Name":null,"اسم_المؤسس":null,"type":null,"TYPECODE":null,"Area":null,"AreaH":null,"Shape_Length":167.99986443304005,"Shape_Area":1738.9971755514916}},{"type":"Feature","id":52,"geometry":{"type":"Polygon","coordinates":[[[41.977949050155004,34.34756500423579],[41.977511196155334,34.348080839989017],[41.977150673171145,34.347877396018184],[41.977587740573526,34.347361284102618],[41.977949050155004,34.34756500423579]]]},"properties":{"OBJECTID":52,"OID_":null,"Shape_Leng":null,"Name":null,"اسم_المؤسس":null,"type":null,"TYPECODE":null,"Area":null,"AreaH":null,"Shape_Length":220.37483795217656,"Shape_Area":2812.531401470837}},{"type":"Feature","id":53,"geometry":{"type":"Polygon","coordinates":[[[41.991893110431242,34.357708180223696],[41.991594812577361,34.358195872702083],[41.990723937092476,34.357832376910231],[41.991034240687043,34.35732506612635],[41.991893110431242,34.357708180223696]]]},"properties":{"OBJECTID":53,"OID_":null,"Shape_Leng":null,"Name":null,"اسم_المؤسس":null,"type":null,"TYPECODE":null,"Area":null,"AreaH":null,"Shape_Length":303.3327439532892,"Shape_Area":5556.1250884795327}},{"type":"Feature","id":54,"geometry":{"type":"Polygon","coordinates":[[[41.975253625673503,34.363059208611844],[41.9759503519793,34.362145324553133],[41.977098304608262,34.362747166056032],[41.976401586790637,34.363661056192143],[41.975253625673503,34.363059208611844]]]},"properties":{"OBJECTID":54,"OID_":null,"Shape_Leng":null,"Name":null,"اسم_المؤسس":null,"type":null,"TYPECODE":null,"Area":null,"AreaH":null,"Shape_Length":489.99996716589737,"Shape_Area":14999.997865584479}},{"type":"Feature","id":55,"geometry":{"type":"Polygon","coordinates":[[[41.981116645977728,34.372214637639033],[41.98101197266724,34.372351639176046],[41.980754954157085,34.372216628527511],[41.980859627720065,34.372079626294408],[41.981116645977728,34.372214637639033]]]},"properties":{"OBJECTID":55,"OID_":null,"Shape_Leng":null,"Name":null,"اسم_المؤسس":null,"type":null,"TYPECODE":null,"Area":null,"AreaH":null,"Shape_Length":91.999980645401664,"Shape_Area":503.99990819579841}},{"type":"Feature","id":56,"geometry":{"type":"Polygon","coordinates":[[[41.977320719097094,34.37850404172984],[41.977605395231578,34.378141674513039],[41.978520159115163,34.378633499755978],[41.978236342225173,34.378996358282507],[41.977320719097094,34.37850404172984]]]},"properties":{"OBJECTID":56,"OID_":null,"Shape_Leng":null,"Name":null,"اسم_المؤسس":null,"type":null,"TYPECODE":null,"Area":null,"AreaH":null,"Shape_Length":296.74777938078222,"Shape_Area":4817.8720903213998}},{"type":"Feature","id":63,"geometry":{"type":"Polygon","coordinates":[[[41.976962253562,34.351714054113238],[41.976695398890307,34.351756188835495],[41.976681872901842,34.351700138639103],[41.9766642937741,34.351645224604951],[41.976642755197531,34.351591739405144],[41.976617371965034,34.35153996809661],[41.976865743455249,34.351448837371201],[41.976896943552639,34.351512374796741],[41.976923515416722,34.351577982620661],[41.976945322715373,34.351645324229246],[41.976962253562,34.351714054113238]]]},"properties":{"OBJECTID":63,"OID_":null,"Shape_Leng":null,"Name":null,"اسم_المؤسس":null,"type":null,"TYPECODE":null,"Area":null,"AreaH":null,"Shape_Length":105.94607256335505,"Shape_Area":699.25973355196402}},{"type":"Feature","id":78,"geometry":{"type":"Polygon","coordinates":[[[41.988907567027709,34.362560245148707],[41.988639925756878,34.36252181643745],[41.988511458649668,34.362503371076748],[41.988562695092035,34.36225722660518],[41.988571095217139,34.362263316644047],[41.988908721398381,34.361912682520284],[41.988910274180803,34.361911415074879],[41.98901955092343,34.361936241277945],[41.989037318748579,34.361938792430166],[41.988907567027709,34.362560245148707]]]},"properties":{"OBJECTID":78,"OID_":null,"Shape_Leng":null,"Name":null,"اسم_المؤسس":null,"type":null,"TYPECODE":null,"Area":null,"AreaH":null,"Shape_Length":197.83949701405425,"Shape_Area":2055.4915209879741}},{"type":"Feature","id":79,"geometry":{"type":"Polygon","coordinates":[[[42.004431223287241,34.366717296033492],[42.00445631057022,34.366727942103061],[42.004479601812278,34.366741098338828],[42.004500733681375,34.366756559510264],[42.004519376530048,34.366774084430958],[42.004535239537766,34.366793399720962],[42.004548075247577,34.366814204071282],[42.004557683426412,34.366836172944126],[42.004563914188736,34.366858963635465],[42.004566670334789,34.366882220621058],[42.004565908867072,34.36690558110238],[42.004561641661226,34.366928680666142],[42.004553935280981,34.366951158968931],[42.004542909939943,34.366972665358482],[42.004528737626508,34.366992864343672],[42.004511639421011,34.367011440828115],[42.004491882047112,34.367028105025611],[42.001113317129665,34.369208308338486],[42.004261234605394,34.366648150846615],[42.004431223287241,34.366717296033492]]]},"properties":{"OBJECTID":79,"OID_":null,"Shape_Leng":null,"Name":null,"اسم_المؤسس":null,"type":null,"TYPECODE":null,"Area":null,"AreaH":null,"Shape_Length":858.75940866918302,"Shape_Area":9608.164011904244}},{"type":"Feature","id":80,"geometry":{"type":"Polygon","coordinates":[[[41.97111006519291,34.344170773407861],[41.970944202073042,34.344454535145537],[41.970699839979446,34.344356266235593],[41.970543448403056,34.344293374115814],[41.970709312608079,34.344009611961006],[41.97111006519291,34.344170773407861]]]},"properties":{"OBJECTID":80,"OID_":null,"Shape_Leng":null,"Name":null,"اسم_المؤسس":null,"type":null,"TYPECODE":null,"Area":null,"AreaH":null,"Shape_Length":152.00010577559368,"Shape_Area":1435.0015038251033}},{"type":"Feature","id":81,"geometry":{"type":"Polygon","coordinates":[[[41.970090450824515,34.345708034541346],[41.969448170369382,34.345892863013994],[41.96922835788012,34.345367345639652],[41.969224244277669,34.345354535811587],[41.969222441283222,34.345341363984929],[41.9692229879251,34.345328115290116],[41.969225872369059,34.345315076521395],[41.969231032174534,34.345302529928638],[41.969238355646411,34.345290747107455],[41.969247684252956,34.345279983120001],[41.969258816057568,34.345270470973695],[41.969271510090209,34.34526241657732],[41.969285491563632,34.345255994283796],[41.969300457821674,34.345251343115962],[41.969316084890842,34.345248563757217],[41.969332034493249,34.345247716372043],[41.969347961369259,34.34524881930367],[41.969363520751195,34.345251848676959],[41.969378375826444,34.345256738915289],[41.970168511297857,34.345574491892222],[41.970090450824515,34.345708034541346]]]},"properties":{"OBJECTID":81,"OID_":null,"Shape_Leng":null,"Name":null,"اسم_المؤسس":null,"type":null,"TYPECODE":null,"Area":null,"AreaH":null,"Shape_Length":245.18863252010289,"Shape_Area":3428.2318475437401}},{"type":"Feature","id":82,"geometry":{"type":"Polygon","coordinates":[[[41.969095940804188,34.347286004953503],[41.969086462410495,34.347302219502353],[41.968480430209581,34.347058503259888],[41.968670003474678,34.346734206598533],[41.968895106096014,34.346824733321434],[41.969086453427686,34.347282189760307],[41.969095940804188,34.347286004953503]]]},"properties":{"OBJECTID":82,"OID_":null,"Shape_Leng":null,"Name":null,"اسم_المؤسس":null,"type":null,"TYPECODE":null,"Area":null,"AreaH":null,"Shape_Length":181.73992794076887,"Shape_Area":1721.110257772051}},{"type":"Feature","id":83,"geometry":{"type":"Polygon","coordinates":[[[41.971451373378954,34.347241183979087],[41.971455487392518,34.347253993771275],[41.971457290750308,34.34726716560089],[41.97145674441402,34.34728041433776],[41.971453860209081,34.347293453186765],[41.971448700568757,34.347305999896093],[41.971441377182778,34.347317782867144],[41.971432048579622,34.347328547033861],[41.971420916694974,34.347338059384107],[41.971408222500408,34.347346114003791],[41.971394240787127,34.347352536534274],[41.971379274217526,34.347357187946734],[41.971363646773412,34.347359967551817],[41.971347696742754,34.347360815179236],[41.971331769396606,34.347359712480284],[41.971316209515038,34.347356683325081],[41.971301353923486,34.347351793285874],[41.970510593350099,34.347033804776778],[41.970588947334733,34.346899760770796],[41.971231232352331,34.346714926058958],[41.971451373378954,34.347241183979087]]]},"properties":{"OBJECTID":83,"OID_":null,"Shape_Leng":null,"Name":null,"اسم_المؤسس":null,"type":null,"TYPECODE":null,"Area":null,"AreaH":null,"Shape_Length":245.39994889844868,"Shape_Area":3434.7311031200552}},{"type":"Feature","id":84,"geometry":{"type":"Polygon","coordinates":[[[41.960344695810697,34.348157867300309],[41.960110665184772,34.348554850349998],[41.959622709095619,34.348356957482984],[41.959856646206099,34.347960136220699],[41.960344695810697,34.348157867300309]]]},"properties":{"OBJECTID":84,"OID_":null,"Shape_Leng":null,"Name":null,"اسم_المؤسس":null,"type":null,"TYPECODE":null,"Area":null,"AreaH":null,"Shape_Length":198.0688618043875,"Shape_Area":2451.7214113957007}},{"type":"Feature","id":85,"geometry":{"type":"Polygon","coordinates":[[[41.985192439858189,34.370480393146536],[41.985308760442585,34.370967924307877],[41.984813604315278,34.371067370652682],[41.984812835692097,34.371064521189247],[41.984531591887141,34.370021979478651],[41.985060565785027,34.369927665314052],[41.985192439858189,34.370480393146536]]]},"properties":{"OBJECTID":85,"OID_":null,"Shape_Leng":null,"Name":null,"اسم_المؤسس":null,"type":null,"TYPECODE":null,"Area":null,"AreaH":null,"Shape_Length":333.26818993399979,"Shape_Area":5716.6866544927798}},{"type":"Feature","id":86,"geometry":{"type":"Polygon","coordinates":[[[41.972279830064352,34.358403347450988],[41.971725303880852,34.359130680862883],[41.971720197489319,34.359136341308918],[41.971714085889751,34.359141269006507],[41.971707120274658,34.359145344001867],[41.971699470966712,34.359148464805685],[41.971691327641508,34.359150554697557],[41.971682890639585,34.359151561937011],[41.971674366717828,34.35915146257107],[41.971665967899881,34.35915025865927],[41.97165789850775,34.359147980391619],[41.971650358324332,34.359144683307541],[41.970809133036127,34.358703577950926],[41.970801670268159,34.358698870049736],[41.970795294111412,34.358693168556385],[41.970790195291045,34.358686641906388],[41.970786525272899,34.358679485629324],[41.970784394859429,34.358671913369015],[41.970783866301595,34.358664148962518],[41.970794444950123,34.358371769375985],[41.971976649583652,34.358396903786833],[41.972279830064352,34.358403347450988]]]},"properties":{"OBJECTID":86,"OID_":null,"Shape_Leng":null,"Name":null,"اسم_المؤسس":null,"type":null,"TYPECODE":null,"Area":null,"AreaH":null,"Shape_Length":369.36708810235103,"Shape_Area":7406.447903120963}},{"type":"Feature","id":87,"geometry":{"type":"Polygon","coordinates":[[[41.968835443491024,34.36257825173189],[41.968632208447154,34.362844791052382],[41.968428972152267,34.363111330091805],[41.967326919109901,34.362533446158473],[41.967530228421218,34.362266816066125],[41.967733395167571,34.362000370302333],[41.968835443491024,34.36257825173189]]]},"properties":{"OBJECTID":87,"OID_":null,"Shape_Leng":null,"Name":null,"اسم_المؤسس":null,"type":null,"TYPECODE":null,"Area":null,"AreaH":null,"Shape_Length":380.01482721233009,"Shape_Area":8400.5216435994389}},{"type":"Feature","id":93,"geometry":{"type":"Polygon","coordinates":[[[41.968428972152267,34.363111330091805],[41.968254768631688,34.363339792287881],[41.968022495809343,34.363644407327484],[41.967494457843969,34.363367521243909],[41.967493998234495,34.36336728000505],[41.966920509744732,34.363066427208445],[41.967152785249461,34.362761813213581],[41.967326919109901,34.362533446158473],[41.968428972152267,34.363111330091805]]]},"properties":{"OBJECTID":93,"OID_":null,"Shape_Leng":null,"Name":null,"اسم_المؤسس":null,"type":null,"TYPECODE":null,"Area":null,"AreaH":null,"Shape_Length":380.00238164517521,"Shape_Area":8400.1277228377294}},{"type":"Feature","id":94,"geometry":{"type":"Polygon","coordinates":[[[41.967733395167571,34.362000370302333],[41.967907668332515,34.361771817022287],[41.968481610456401,34.362072907652383],[41.96900964397966,34.362349789748151],[41.968835443491024,34.36257825173189],[41.967733395167571,34.362000370302333]]]},"properties":{"OBJECTID":94,"OID_":null,"Shape_Leng":null,"Name":null,"اسم_المؤسس":null,"type":null,"TYPECODE":null,"Area":null,"AreaH":null,"Shape_Length":300.0268579416574,"Shape_Area":3600.5946338380063}},{"type":"Feature","id":95,"geometry":{"type":"Polygon","coordinates":[[[41.936701535898329,34.345977917831689],[41.935814993701129,34.346528662740624],[41.935486836550133,34.34750762179052],[41.940836072713026,34.3520648184682],[41.942379412877465,34.350806597347479],[41.943035174150168,34.351407783697866],[41.943451793647625,34.351113713317496],[41.943871902316403,34.350824649482533],[41.944295439995699,34.350540633587755],[41.944722346033672,34.350261706305091],[41.945152559296105,34.349987907577756],[41.945586018175192,34.349719276614522],[41.946022660598345,34.349455851884144],[41.946462424037072,34.349197671109827],[41.94690524551595,34.348944771263817],[41.947351061621639,34.34869718856212],[41.947799808511945,34.348454958459307],[41.961449722993187,34.340850414314978],[41.962044258806891,34.341597013579488],[41.959835647800432,34.342807096512473],[41.948246879008238,34.349274980857139],[41.947709335181656,34.349580670422995],[41.947174707618629,34.349891432140417],[41.946643044177485,34.350207238190897],[41.946114392451236,34.350528060304377],[41.945588799763271,34.350853869761771],[41.945066313163167,34.351184637397552],[41.944546979422434,34.351520333602323],[41.944030845030348,34.351860928325529],[41.943517956189801,34.352206391078091],[41.942781039376989,34.35279553683619],[41.942040214032424,34.35337976018571],[41.94129551303589,34.353959035197292],[41.938506243710492,34.356060059326936],[41.929952868673773,34.362487031418375],[41.921353322472442,34.355388919627849],[41.917507857551797,34.35220689701908],[41.930917578748108,34.341058142987407],[41.936701535898329,34.345977917831689]]]},"properties":{"OBJECTID":95,"OID_":null,"Shape_Leng":null,"Name":null,"اسم_المؤسس":null,"type":null,"TYPECODE":null,"Area":null,"AreaH":null,"Shape_Length":11262.497672761277,"Shape_Area":2934314.2982383589}},{"type":"Feature","id":96,"geometry":{"type":"Polygon","coordinates":[[[41.981693342301462,34.370800738709384],[41.981732227485708,34.370820924582496],[41.981440141539345,34.371200989855566],[41.981402456510345,34.371181237046109],[41.981693342301462,34.370800738709384]]]},"properties":{"OBJECTID":96,"OID_":null,"Shape_Leng":null,"Name":null,"اسم_المؤسس":null,"type":null,"TYPECODE":null,"Area":null,"AreaH":null,"Shape_Length":108.34489057538111,"Shape_Area":208.16338048741852}},{"type":"Feature","id":97,"geometry":{"type":"Polygon","coordinates":[[[41.984435706350951,34.365755186843266],[41.985999635764188,34.363618219430684],[41.986045026925673,34.363626822732598],[41.98608827195455,34.363641138252902],[41.98612833038856,34.363660822729855],[41.986402720519024,34.363835047953515],[41.986288533805471,34.364065907094918],[41.986167272797594,34.36428734898162],[41.986038579554744,34.364505885868503],[41.985902552374014,34.364721348576204],[41.985759301438677,34.364933565831386],[41.985608937159569,34.365142372664039],[41.985451577585742,34.365347604818254],[41.984929838952503,34.366017021008368],[41.984435706350951,34.365755186843266]]]},"properties":{"OBJECTID":97,"OID_":null,"Shape_Leng":null,"Name":null,"اسم_المؤسس":null,"type":null,"TYPECODE":null,"Area":null,"AreaH":null,"Shape_Length":654.18391118653699,"Shape_Area":15042.953215152027}},{"type":"Feature","id":98,"geometry":{"type":"Polygon","coordinates":[[[41.9686251363335,34.355834122473098],[41.968539107851328,34.357614723382049],[41.967749961527396,34.357309703063436],[41.966954037052822,34.358707453346817],[41.966676325466338,34.358558420334397],[41.966653442510854,34.358542950888655],[41.966633502616162,34.358524895907635],[41.966616926312952,34.358504636170956],[41.966604063192968,34.358482598956321],[41.966595184536267,34.35845924902813],[41.966590477590096,34.358435078835541],[41.966590041620108,34.358410598126611],[41.96659388581719,34.358386323197777],[41.967673065575248,34.355832228251671],[41.9686251363335,34.355834122473098]]]},"properties":{"OBJECTID":98,"OID_":0,"Shape_Leng":1022.52127476,"Name":"مباني عامة","اسم_المؤسس":"دائرة الكهرباء","type":"Adminstration","TYPECODE":"Adminstration","Area":0.050552552884599998,"AreaH":5.0552552884599997,"Shape_Length":889.68551713611532,"Shape_Area":27743.898170862525}},{"type":"Feature","id":99,"geometry":{"type":"Polygon","coordinates":[[[41.974934264206716,34.35780339908991],[41.974942728176885,34.357804235228208],[41.974950930608244,34.357806158499997],[41.97495866881242,34.357809123357328],[41.974965753167531,34.35781305418849],[41.974972008618174,34.357817856999553],[41.974977280936464,34.35782341205099],[41.974981440266603,34.357829581883934],[41.974984385628019,34.35783621571759],[41.974986042775328,34.357843150402765],[41.974986370873403,34.357850214766366],[41.974980082594243,34.357980568803931],[41.974917681311958,34.358146754354522],[41.974573232148522,34.358598574238286],[41.974567493471085,34.35860482075838],[41.97456053418108,34.35861014509144],[41.974552564943231,34.358614387975159],[41.974543830021148,34.358617418174852],[41.974534592455605,34.358619143660484],[41.974525134128271,34.358619513408136],[41.974515741548259,34.358618515041293],[41.974506700581387,34.358616179466253],[41.974498286548894,34.358612577507138],[41.9730269169998,34.3578410846266],[41.973020171190925,34.3578366740212],[41.973014366288346,34.357831422978329],[41.973009653800624,34.357825466630153],[41.973006155497337,34.357818959761055],[41.97300396107795,34.357812072357305],[41.973003130057393,34.357804981448631],[41.973003682024078,34.357797872246351],[41.973005602837517,34.357790928978872],[41.973008842329143,34.357784331341946],[41.97302542083137,34.357762586013472],[41.973031158522005,34.357756340489111],[41.973038115676957,34.357751016293946],[41.973046082780058,34.357746774462179],[41.973054815472373,34.357743743523258],[41.973064050778127,34.357742017304872],[41.973073507904189,34.357741646800889],[41.974934264206716,34.35780339908991]]]},"properties":{"OBJECTID":99,"OID_":0,"Shape_Leng":455.65030193899997,"Name":"مباني عامة","اسم_المؤسس":"خدمات عامة","type":" ","TYPECODE":" ","Area":0.0097831196650900003,"AreaH":0.97831196650899999,"Shape_Length":455.65030504184182,"Shape_Area":9783.1137891461403}},{"type":"Feature","id":100,"geometry":{"type":"Polygon","coordinates":[[[41.973832240090488,34.36157462035505],[41.973836440717818,34.361575222202831],[41.973840475572871,34.361576361707115],[41.973844245799157,34.361578009722841],[41.975359517546188,34.362372466994515],[41.975363283266063,34.362374846101702],[41.975366494075551,34.36237773177163],[41.975369051217747,34.362381036267529],[41.975370878296346,34.362384658689123],[41.975371919230966,34.362388488627921],[41.975372142760627,34.362392410564631],[41.975371540335395,34.362396305723173],[41.975370132696376,34.362400053713557],[41.975367960451841,34.362403542676283],[41.975021667769113,34.362857765109808],[41.97501400818723,34.362866255080675],[41.975004840202843,34.362873647790146],[41.974994391006319,34.362879759235206],[41.974982918385592,34.362884440724393],[41.97497070302839,34.362887576360812],[41.97495804654119,34.362889088498747],[41.974945260652525,34.362888939809132],[41.974932660728456,34.362887134338727],[41.974920555966335,34.362883716847115],[41.974909244986847,34.362878771111347],[41.974860360513219,34.362853141030527],[41.973462843634231,34.362120421382961],[41.973456017760704,34.362116185828519],[41.973450075496828,34.362111117535271],[41.97344516146179,34.362105340985281],[41.973441399159064,34.36209899830056],[41.973438878870816,34.362092245030325],[41.973437663024463,34.362085248217703],[41.973437782679824,34.362078179274022],[41.973439234239294,34.362071213157385],[41.973441981365163,34.362064521114846],[41.9734459581423,34.362058267901361],[41.973806771631267,34.361585011659045],[41.973809324821694,34.361582181393217],[41.97381238009649,34.361579717504682],[41.973815863503894,34.36157768038224],[41.973819688763783,34.361576119897769],[41.973823760493921,34.361575074426277],[41.973827978554034,34.361574570740416],[41.973832240090488,34.36157462035505]]]},"properties":{"OBJECTID":100,"OID_":0,"Shape_Leng":471.74558418599997,"Name":"مباني عامة","اسم_المؤسس":" ","type":"Services","TYPECODE":"Adminstration","Area":0.011818869756,"AreaH":1.1818869755999999,"Shape_Length":471.74557057034258,"Shape_Area":11818.874958487369}},{"type":"Feature","id":101,"geometry":{"type":"Polygon","coordinates":[[[41.98667723188661,34.368413038935415],[41.986152189917298,34.368508500507509],[41.986004770318374,34.368535303846635],[41.985932730578433,34.368544721990304],[41.985859899626682,34.368547869507779],[41.985787069789133,34.368544711728106],[41.985715032532262,34.368535281607556],[41.985644570987432,34.368519683517519],[41.985576449951168,34.368498087179013],[41.985511412530194,34.368470725040126],[41.985370512841655,34.368396766935959],[41.985362983414888,34.368392004817622],[41.985356564874763,34.368386230359398],[41.985351453715666,34.368379619944086],[41.985347803787178,34.368372373530306],[41.985345727284333,34.368364711924123],[41.985345286825215,34.368356867958589],[41.985346496281252,34.368349079262195],[41.985349317327213,34.368341582934868],[41.985353665670047,34.368334607283373],[41.985633013868096,34.368480689391298],[41.985967041833725,34.368013030109225],[41.9856990426197,34.367882173761245],[41.98573993596144,34.367828605340463],[41.985938513939026,34.367536500781348],[41.985979888764845,34.367498153129567],[41.986026603361886,34.367464283890222],[41.986077958343436,34.367435401392662],[41.986133185325016,34.367411938132015],[41.986191454366718,34.367394246080778],[41.986391709203566,34.367358203854138],[41.986569655539171,34.368017357199214],[41.986585789271054,34.368076699214207],[41.986674164686384,34.368401758131945],[41.98667723188661,34.368413038935415]],[[41.986627206747848,34.368336418440343],[41.986541837516235,34.368022415528507],[41.985946285788316,34.368130696046485],[41.986029655102058,34.368450365729331],[41.986627206747848,34.368336418440343]]]},"properties":{"OBJECTID":101,"OID_":0,"Shape_Leng":644.19851232400003,"Name":"مباني عامة","اسم_المؤسس":" ","type":"Adminstration","TYPECODE":"Adminstration","Area":0.0098016186283099993,"AreaH":0.98016186283100004,"Shape_Length":649.09673223189748,"Shape_Area":6170.8389608477091}},{"type":"Feature","id":102,"geometry":{"type":"Polygon","coordinates":[[[41.982841515236899,34.368802462668491],[41.982441574372075,34.369324717880822],[41.981565390129383,34.368872595416214],[41.982042816804444,34.368244899795272],[41.982917193429202,34.368703216865264],[41.982841515236899,34.368802462668491]]]},"properties":{"OBJECTID":102,"OID_":0,"Shape_Leng":366.40508141100003,"Name":"مباني عامة","اسم_المؤسس":"بلدية عنه","type":"Adminstration","TYPECODE":"Adminstration","Area":0.0083778400486300003,"AreaH":0.83778400486299998,"Shape_Length":354.2358713300041,"Shape_Area":7800.8110950873906}},{"type":"Feature","id":103,"geometry":{"type":"Polygon","coordinates":[[[41.989131710587706,34.371893656746323],[41.98900010885265,34.372064696052838],[41.988988567556667,34.372077149619599],[41.988974594962421,34.372087752570629],[41.988958613362797,34.372096182702251],[41.988941109330909,34.372102182942513],[41.988922614553651,34.372105572636393],[41.988903691679674,34.372106246990441],[41.98888491403455,34.372104187483941],[41.988866853416823,34.372099454956064],[41.988850058502912,34.372092193739313],[41.988597513246887,34.371958594126802],[41.987947296309265,34.371614616649666],[41.987932661696746,34.371605339288472],[41.987920128797661,34.371594145596227],[41.98791005471832,34.371581356756472],[41.987902731910246,34.371567340602013],[41.98789836932189,34.371552501258719],[41.987897092908796,34.371537262907971],[41.987898937870789,34.371522065469314],[41.987903853378768,34.371507344654383],[41.987911696856258,34.371493523994154],[41.988027639240848,34.371327429486222],[41.988029322202507,34.371325017708131],[41.988280131167649,34.370965718156086],[41.988211251342562,34.370708804429114],[41.988208769497675,34.370693264727961],[41.988209573884767,34.370677603258663],[41.988213638979545,34.370662294775862],[41.988220843166644,34.370647801959826],[41.988230967237641,34.370634563735116],[41.988243704740412,34.370622980595613],[41.988258671402228,34.370613404458972],[41.988275412188599,34.370606123170674],[41.988293422961668,34.370601358172046],[41.989623350698189,34.370352717930089],[41.989632929857947,34.370352777591108],[41.989642377610707,34.37035409429636],[41.989651454687511,34.370356634234419],[41.98965993165578,34.370360334509044],[41.989667595371934,34.370365101178578],[41.989674252399887,34.370370813679251],[41.989679734569691,34.370377328294943],[41.989683904472194,34.370384479825468],[41.98973900738207,34.370587122392685],[41.989791299311868,34.370779428915903],[41.98980003860229,34.370830612448202],[41.989802409268805,34.370882268979081],[41.989798387643745,34.370933855550255],[41.989788016377155,34.370984829383886],[41.989771403575439,34.371034654213176],[41.98974872411226,34.371082806560295],[41.98972021758496,34.371128779391874],[41.989131710587706,34.371893656746323]],[[41.989179763204987,34.371539566630041],[41.988962431763859,34.371423180691167],[41.988824941474903,34.371620147079682],[41.989042274360692,34.371736533216676],[41.989179763204987,34.371539566630041]],[[41.988943771498136,34.37138219002258],[41.988340079436085,34.371071312101854],[41.988144962492143,34.371321843112902],[41.988757075764994,34.371649647939542],[41.988928021795125,34.371404753670944],[41.988943771498136,34.37138219002258]],[[41.988679134818256,34.370869572399378],[41.988601299113654,34.370605241234976],[41.988376566502055,34.370650666790098],[41.988457440927078,34.370914383920621],[41.988679134818256,34.370869572399378]]]},"properties":{"OBJECTID":103,"OID_":0,"Shape_Leng":983.56399959400005,"Name":"مباني عامة","اسم_المؤسس":" ","type":"Adminstration","TYPECODE":"Adminstration","Area":0.021522651638899999,"AreaH":2.1522651638900001,"Shape_Length":983.56413264081527,"Shape_Area":18052.577145969495}},{"type":"Feature","id":104,"geometry":{"type":"Polygon","coordinates":[[[41.980605388663243,34.372135336104485],[41.979960034266561,34.372981835203355],[41.97972122503532,34.372856660814087],[41.979491600243733,34.372736300029182],[41.980134718235178,34.371892741361258],[41.980605388663243,34.372135336104485]]]},"properties":{"OBJECTID":104,"OID_":0,"Shape_Leng":299.82811185499997,"Name":"مباني عامة","اسم_المؤسس":" ","type":"Adminstration","TYPECODE":"Adminstration","Area":0.0049957032707100002,"AreaH":0.49957032707100002,"Shape_Length":323.91281739750718,"Shape_Area":5658.7414128981109}},{"type":"Feature","id":105,"geometry":{"type":"Polygon","coordinates":[[[41.983697447556082,34.372325038730011],[41.983316097431391,34.37239380607339],[41.983277686194867,34.372252118817222],[41.983270909271269,34.3722271200227],[41.983269672169449,34.372216795926931],[41.9832693867967,34.372211725354333],[41.983271180462154,34.372186051447201],[41.983278322755083,34.372161024951971],[41.983290598303746,34.372137408290499],[41.983307633542232,34.372115917265603],[41.983328910287739,34.372097205406405],[41.983353781234186,34.372081841055802],[41.983378189222826,34.372071413194895],[41.983588291115957,34.3720335260222],[41.983619715593981,34.372027859328036],[41.983631355909303,34.372072239223691],[41.983697650633914,34.372325002226212],[41.983697447556082,34.372325038730011]]]},"properties":{"OBJECTID":105,"OID_":0,"Shape_Leng":132.76069032800001,"Name":"مباني عامة","اسم_المؤسس":"مصرف","type":" ","TYPECODE":"RSEDENSIAL","Area":0.0011624423657099999,"AreaH":0.116244236571,"Shape_Length":132.76065113554213,"Shape_Area":1162.4425527488625}},{"type":"Feature","id":106,"geometry":{"type":"Polygon","coordinates":[[[41.983003601432742,34.376099022724027],[41.982968734955818,34.376080527666566],[41.982832998942683,34.376095450636413],[41.982776646763895,34.376168485845675],[41.982369688245107,34.375952617678621],[41.982731257697509,34.37547023650707],[41.982867067130186,34.375542276251068],[41.983208757211713,34.375723521812382],[41.983268768389316,34.375755354154144],[41.983048521662063,34.376040803035515],[41.983003601432742,34.376099022724027]]]},"properties":{"OBJECTID":106,"OID_":0,"Shape_Leng":237.526662504,"Name":"مباني عامة","اسم_المؤسس":" ","type":"Adminstration","TYPECODE":"Adminstration","Area":0.00351738245913,"AreaH":0.35173824591300001,"Shape_Length":237.52683616754291,"Shape_Area":3475.7868115565902}},{"type":"Feature","id":107,"geometry":{"type":"Polygon","coordinates":[[[41.983967345204064,34.376194164951833],[41.983640440329459,34.376617851658807],[41.983629599030849,34.376631902961854],[41.983230460907762,34.376420188074398],[41.983223133396748,34.376357508386711],[41.983222287221281,34.376350268331421],[41.983210198305009,34.37624685379361],[41.983201182997576,34.376169729034252],[41.983410306504325,34.375898694097572],[41.983526072378723,34.375960100754241],[41.983749938284838,34.376078845319221],[41.983967345204064,34.376194164951833]]]},"properties":{"OBJECTID":107,"OID_":0,"Shape_Leng":225.77002728799999,"Name":"مباني عامة","اسم_المؤسس":"مكتبة عائشة","type":"Adminstration","TYPECODE":"Adminstration","Area":0.00331310584548,"AreaH":0.331310584548,"Shape_Length":225.77008683917248,"Shape_Area":3320.2558789699428}},{"type":"Feature","id":108,"geometry":{"type":"Polygon","coordinates":[[[41.993090165750708,34.366006193790724],[41.993154714465369,34.366258114152522],[41.99316268630232,34.366289225162099],[41.992929647219789,34.366591483772076],[41.992552547928341,34.366658200133514],[41.992379422750915,34.366561076260034],[41.992430239884321,34.366502344016894],[41.992346492332864,34.366455982383201],[41.992340205710143,34.366430341168339],[41.992276066292476,34.366168751018648],[41.992542006608979,34.36612077070685],[41.992491639379445,34.365928799541308],[41.992829567614542,34.365867830261173],[41.993090165750708,34.366006193790724]]]},"properties":{"OBJECTID":108,"OID_":0,"Shape_Leng":283.64076922200002,"Name":"مباني عامة","اسم_المؤسس":"دائرة اثار عنه","type":"Adminstration","TYPECODE":"Adminstration","Area":0.0049206399446700003,"AreaH":0.492063994467,"Shape_Length":283.6407451849409,"Shape_Area":4920.6381645320243}},{"type":"Feature","id":109,"geometry":{"type":"Polygon","coordinates":[[[41.985792560455401,34.369572617979834],[41.985199479947809,34.369686327899537],[41.985036486083715,34.369080773755719],[41.985274711125392,34.368976283215439],[41.985543305260215,34.368649519643675],[41.985792560455401,34.369572617979834]]]},"properties":{"OBJECTID":109,"OID_":0,"Shape_Leng":242.676028081,"Name":"مباني عامة","اسم_المؤسس":"فندق عنه","type":"Adminstration","TYPECODE":"Adminstration","Area":0.0036132564305699998,"AreaH":0.36132564305699999,"Shape_Length":298.56671487885973,"Shape_Area":4613.0004967000459}},{"type":"Feature","id":110,"geometry":{"type":"Polygon","coordinates":[[[41.984907892315618,34.371416880055158],[41.984263188936332,34.371541447497322],[41.984233405847654,34.371426650306134],[41.984173494845926,34.371195724838813],[41.984801212368637,34.371070299777216],[41.984812835692097,34.371064521189247],[41.984893517613763,34.371363594598741],[41.984907892315618,34.371416880055158]]]},"properties":{"OBJECTID":110,"OID_":0,"Shape_Leng":200.91358402,"Name":"مباني عامة","اسم_المؤسس":"دار الضيافة","type":"Adminstration","TYPECODE":"Adminstration","Area":0.0023984956547,"AreaH":0.23984956547,"Shape_Length":200.91338371024136,"Shape_Area":2398.4931864240425}},{"type":"Feature","id":111,"geometry":{"type":"Polygon","coordinates":[[[41.982213520616533,34.3696225134548],[41.982061816411331,34.369820610676662],[41.981605883856162,34.369581628028129],[41.981757420000761,34.369382848587371],[41.982213520616533,34.3696225134548]]]},"properties":{"OBJECTID":111,"OID_":0,"Shape_Leng":242.60099964,"Name":"مباني عامة","اسم_المؤسس":"دائرة الموارد المائية","type":"Adminstration","TYPECODE":"Adminstration","Area":0.0024847510130500002,"AreaH":0.248475101305,"Shape_Length":151.47934325993737,"Shape_Area":1294.9455269506454}},{"type":"Feature","id":112,"geometry":{"type":"Polygon","coordinates":[[[41.982017980154794,34.369877850767267],[41.981839481536717,34.370110934229132],[41.980968575217645,34.369654435206975],[41.981144673004273,34.369420093660239],[41.982017980154794,34.369877850767267]]]},"properties":{"OBJECTID":112,"OID_":0,"Shape_Leng":271.20746911800001,"Name":"مباني عامة","اسم_المؤسس":" ","type":"Adminstration","TYPECODE":"Adminstration","Area":0.0038464212541300001,"AreaH":0.38464212541300002,"Shape_Length":251.19364244448664,"Shape_Area":2909.7480345303488}},{"type":"Feature","id":113,"geometry":{"type":"Polygon","coordinates":[[[41.982385952992786,34.369397349232663],[41.982213518508182,34.369622515309011],[41.981341507988148,34.369165438229309],[41.981515370719599,34.368941021821954],[41.982385952992786,34.369397349232663]]]},"properties":{"OBJECTID":113,"OID_":0,"Shape_Leng":270.08481093300003,"Name":"مباني عامة","اسم_المؤسس":" ","type":"Adminstration","TYPECODE":"Adminstration","Area":0.0037929837258500001,"AreaH":0.37929837258499999,"Shape_Length":248.93612900603884,"Shape_Area":2808.3060831089151}},{"type":"Feature","id":114,"geometry":{"type":"Polygon","coordinates":[[[41.983319131361554,34.368178767990855],[41.982964634274573,34.368641688067541],[41.982091930608348,34.368184248144303],[41.982445668935945,34.367720931659704],[41.983319131361554,34.368178767990855]]]},"properties":{"OBJECTID":114,"OID_":0,"Shape_Leng":349.95986454199999,"Name":"مباني عامة","اسم_المؤسس":" ","type":"Adminstration","TYPECODE":"Adminstration","Area":0.0075950456390000004,"AreaH":0.75950456389999998,"Shape_Length":311.84250984765168,"Shape_Area":5785.4767429257963}},{"type":"Feature","id":115,"geometry":{"type":"Polygon","coordinates":[[[41.982872290585796,34.37006611697845],[41.983064529537153,34.370163290224617],[41.98283073273835,34.370476184707726],[41.982267369363512,34.370180898493935],[41.982494790437237,34.36986428366081],[41.982655198496438,34.369946203571935],[41.982872290585796,34.37006611697845]]]},"properties":{"OBJECTID":115,"OID_":0,"Shape_Leng":263.82201146400001,"Name":"مباني عامة","اسم_المؤسس":"قائممقامية قضاء عنه","type":"Adminstration","TYPECODE":"Adminstration","Area":0.00358930212211,"AreaH":0.35893021221100002,"Shape_Length":205.15406776021746,"Shape_Area":2517.9809905625098}},{"type":"Feature","id":116,"geometry":{"type":"Polygon","coordinates":[[[41.982548269885832,34.370853204504918],[41.982438103326743,34.370997719045157],[41.982053307366208,34.370796029058823],[41.98196225955941,34.370748305936274],[41.982246599697561,34.370386081251951],[41.982723240751199,34.370635912826124],[41.982548269885832,34.370853204504918]]]},"properties":{"OBJECTID":116,"OID_":0,"Shape_Leng":264.61408784499997,"Name":"مباني عامة","اسم_المؤسس":"استعمال اداري","type":"Adminstration","TYPECODE":"Adminstration","Area":0.0044553658189599998,"AreaH":0.44553658189599998,"Shape_Length":199.64383410482225,"Shape_Area":2480.1131188212375}},{"type":"Feature","id":117,"geometry":{"type":"Polygon","coordinates":[[[41.983453461151271,34.364219533445905],[41.98388665184563,34.364439933753168],[41.983333458028582,34.365215410522389],[41.982870403835747,34.364979815461091],[41.983406085335865,34.364228893658357],[41.983453461151271,34.364219533445905]]]},"properties":{"OBJECTID":117,"OID_":0,"Shape_Leng":298.09177812199999,"Name":"مباني عامة","اسم_المؤسس":" ","type":"Adminstration","TYPECODE":"Adminstration","Area":0.064669938524800005,"AreaH":6.4669938524799999,"Shape_Length":298.09170957786534,"Shape_Area":4994.2412292670351}},{"type":"Feature","id":118,"geometry":{"type":"Polygon","coordinates":[[[41.983988712208294,34.368273509714598],[41.984195738729866,34.367966106060265],[41.984726995734512,34.368244968762149],[41.984504006743443,34.368543994115456],[41.983988712208294,34.368273509714598]]]},"properties":{"OBJECTID":118,"OID_":0,"Shape_Leng":192.091386621,"Name":"مباني عامة","اسم_المؤسس":"الكراج الموحد","type":"Adminstration","TYPECODE":"Adminstration","Area":0.0095300530914300009,"AreaH":0.95300530914299997,"Shape_Length":192.09146935900037,"Shape_Area":2223.9210286262837}},{"type":"Feature","id":119,"geometry":{"type":"Polygon","coordinates":[[[41.983771975915047,34.370531586113245],[41.983843138016638,34.370793157714957],[41.98329900733782,34.370883356636917],[41.98288253004268,34.370660357226846],[41.983203874013647,34.370238819453739],[41.983771975915047,34.370531586113245]]]},"properties":{"OBJECTID":119,"OID_":0,"Shape_Leng":246.57257037100001,"Name":"مباني عامة","اسم_المؤسس":"المجلس المحلي لقضاء عنه","type":"Adminstration","TYPECODE":"Adminstration","Area":0.029357074267700001,"AreaH":2.9357074267700001,"Shape_Length":243.35883263900791,"Shape_Area":3750.0419344592624}},{"type":"Feature","id":120,"geometry":{"type":"Polygon","coordinates":[[[41.985495287180427,34.368593857470138],[41.985219736585549,34.368940542027701],[41.985159763919981,34.36897027881983],[41.985097466753047,34.368994774950409],[41.985033302030622,34.369013850741815],[41.984967740396996,34.369027366274302],[41.984901262742724,34.369035222412272],[41.984834356677297,34.369037361531433],[41.984767512952587,34.369033767941481],[41.984701221863205,34.369024468001172],[41.984626802988082,34.368990244030684],[41.984442546310525,34.368907957769309],[41.984427371850238,34.368804582519559],[41.984819866234794,34.36826405866973],[41.985495287180427,34.368593857470138]]]},"properties":{"OBJECTID":120,"OID_":0,"Shape_Leng":244.711827709,"Name":"مباني عامة","اسم_المؤسس":"مركز شرطة عنه","type":"Adminstration","TYPECODE":"Adminstration","Area":0.0088894249766899996,"AreaH":0.88894249766900002,"Shape_Length":276.88564081796278,"Shape_Area":5110.132892278014}},{"type":"Feature","id":121,"geometry":{"type":"Polygon","coordinates":[[[41.985591600962209,34.36777023466469],[41.985279750908198,34.368178748549489],[41.985215953139694,34.368262321683858],[41.985210209127615,34.368268565218564],[41.985203246417953,34.368273886634199],[41.985195273472584,34.368278125802597],[41.985186534563788,34.368281151467329],[41.985177294984553,34.368282873322819],[41.985167835490138,34.368283238544571],[41.985158511426896,34.368282243866567],[41.985158442682994,34.368282236530753],[41.985149403486268,34.368279896333014],[41.985140990066284,34.368276290630071],[41.98461273672487,34.367999006915433],[41.985009755038348,34.367464820679629],[41.985591600962209,34.36777023466469]]]},"properties":{"OBJECTID":121,"OID_":0,"Shape_Leng":263.040279172,"Name":"مباني عامة","اسم_المؤسس":"دائرة الطرق والجسور","type":"Adminstration","TYPECODE":"Adminstration","Area":0.020035226057800001,"AreaH":2.0035226057800002,"Shape_Length":263.04032721726901,"Shape_Area":4378.7793588324339}},{"type":"Feature","id":122,"geometry":{"type":"Polygon","coordinates":[[[41.985434100092149,34.366901901342949],[41.986156729514263,34.367287974572598],[41.986089659058628,34.36730720205658],[41.986025417743903,34.36733220504027],[41.985964725017105,34.36736270365693],[41.98590826435732,34.367398354018995],[41.985856668390703,34.367438757595089],[41.985810515600434,34.367483460388598],[41.985603178527171,34.367755068245565],[41.985591600962209,34.36777023466469],[41.985009755038348,34.367464820679629],[41.985434100092149,34.366901901342949]]]},"properties":{"OBJECTID":122,"OID_":0,"Shape_Leng":471.10835852999998,"Name":"مباني عامة","اسم_المؤسس":" ","type":"Adminstration","TYPECODE":"Adminstration","Area":0.020035226057800001,"AreaH":2.0035226057800002,"Shape_Length":293.02760056361194,"Shape_Area":4862.8404848206274}},{"type":"Feature","id":123,"geometry":{"type":"Polygon","coordinates":[[[41.98662720566174,34.368336418466868],[41.986029655102058,34.368450365729331],[41.985946285788316,34.368130696046485],[41.986541837516235,34.368022415528507],[41.98662720566174,34.368336418466868]]]},"properties":{"OBJECTID":123,"OID_":0,"Shape_Leng":184.567092702,"Name":"مباني عامة","اسم_المؤسس":"مركز الدفاع المدني","type":"Adminstration","TYPECODE":"Adminstration","Area":0.0098016186283099993,"AreaH":0.98016186283100004,"Shape_Length":184.56695648490512,"Shape_Area":2026.3968802291211}},{"type":"Feature","id":124,"geometry":{"type":"Polygon","coordinates":[[[41.9856990426197,34.367882173761245],[41.985967041833725,34.368013030109225],[41.985633013868096,34.368480689391298],[41.985353665670047,34.368334607283373],[41.985414119689786,34.368255414442416],[41.9856990426197,34.367882173761245]]]},"properties":{"OBJECTID":124,"OID_":0,"Shape_Leng":178.77226957799999,"Name":"مباني عامة","اسم_المؤسس":"مركز ماء عنه","type":"Adminstration","TYPECODE":"Adminstration","Area":0.0098016186283099993,"AreaH":0.98016186283100004,"Shape_Length":178.77235217100267,"Shape_Area":1766.5121453272268}},{"type":"Feature","id":125,"geometry":{"type":"Polygon","coordinates":[[[41.9806363474653,34.372296733733364],[41.980912687259966,34.372462228316031],[41.981258768861139,34.373714756674289],[41.981027125371305,34.373996449754948],[41.979916657965248,34.373408977443439],[41.979900059135851,34.373397962163146],[41.979886325589277,34.373384505236992],[41.979875970231895,34.373369109241708],[41.97986937980393,34.373352349172336],[41.979866800436064,34.373334850967758],[41.979868328457492,34.37331726813359],[41.979873906798687,34.373300257335757],[41.979883327123112,34.373284453875954],[41.9806363474653,34.372296733733364]]]},"properties":{"OBJECTID":125,"OID_":0,"Shape_Leng":471.61948696600001,"Name":"مباني عامة","اسم_المؤسس":"مركز اباء للأبحاث الزراعية","type":"Adminstration","TYPECODE":"Adminstration","Area":0.026465879236800001,"AreaH":2.6465879236799998,"Shape_Length":478.41725456615177,"Shape_Area":13189.981268573329}},{"type":"Feature","id":126,"geometry":{"type":"Polygon","coordinates":[[[41.988002101657543,34.366793995275117],[41.987959275838314,34.366801720053857],[41.987676375685872,34.366852747722341],[41.987673410931649,34.366841445512009],[41.987647695015397,34.366743410311905],[41.987613821516177,34.36661427091871],[41.987896722043679,34.366563244307478],[41.98793954669636,34.366555520483615],[41.988002101657543,34.366793995275117]]]},"properties":{"OBJECTID":126,"OID_":0,"Shape_Leng":115.53177659399999,"Name":"مباني عامة","اسم_المؤسس":"ديوان آل دله علي","type":" ","TYPECODE":" ","Area":0,"AreaH":0,"Shape_Length":115.53175822537902,"Shape_Area":830.99981479248061}},{"type":"Feature","id":127,"geometry":{"type":"Polygon","coordinates":[[[41.981757420000761,34.369382848587371],[41.981605883856162,34.369581628028129],[41.981190063637456,34.369363053944433],[41.981344432718693,34.369166373779592],[41.981757420000761,34.369382848587371]]]},"properties":{"OBJECTID":127,"OID_":0,"Shape_Leng":242.60099964,"Name":"مباني عامة","اسم_المؤسس":"دائرة زراعة عنه","type":"Adminstration","TYPECODE":"Adminstration","Area":0.0024847510130500002,"AreaH":0.248475101305,"Shape_Length":142.42001181963624,"Shape_Area":1176.8033843263024}},{"type":"Feature","id":128,"geometry":{"type":"Polygon","coordinates":[[[41.968539107851328,34.357614723382049],[41.968499719414631,34.358429938145584],[41.96842451279101,34.358528574381602],[41.967965126892373,34.359131069125567],[41.967934093198451,34.359171769417486],[41.967931023308239,34.359175362065336],[41.967924974194453,34.359180681072012],[41.96791790349279,34.359185048656002],[41.967910024976455,34.359188331631294],[41.967901578572501,34.359190429528894],[41.967892821832756,34.359191279310807],[41.967884020159715,34.359190855607309],[41.967875440290591,34.359189170875013],[41.96786734378118,34.359186275555011],[41.967864310423366,34.359184804168621],[41.967815233030521,34.35915906854845],[41.966954037052822,34.358707453346817],[41.967749961527396,34.357309703063436],[41.968539107851328,34.357614723382049]]]},"properties":{"OBJECTID":128,"OID_":0,"Shape_Leng":1022.52127476,"Name":"مباني عامة","اسم_المؤسس":"محطة كهرباء عنه الرئيسية","type":"Adminstration","TYPECODE":"Adminstration","Area":0.050552552884599998,"AreaH":5.0552552884599997,"Shape_Length":546.0924643972927,"Shape_Area":18546.084734979333}},{"type":"Feature","id":129,"geometry":{"type":"Polygon","coordinates":[[[41.984185691021636,34.369801857241626],[41.983712710147934,34.369571089390291],[41.984022452363355,34.369157138484141],[41.984424500124163,34.369334306264754],[41.984456891466664,34.369468980363244],[41.984185691021636,34.369801857241626]]]},"properties":{"OBJECTID":129,"OID_":null,"Shape_Leng":null,"Name":null,"اسم_المؤسس":null,"type":null,"TYPECODE":null,"Area":null,"AreaH":null,"Shape_Length":206.30249425173912,"Shape_Area":2782.7112310703556}},{"type":"Feature","id":130,"geometry":{"type":"Polygon","coordinates":[[[41.983079383068059,34.371390227716347],[41.983347209569921,34.371073799261637],[41.983369982475004,34.37104358520601],[41.983565471368664,34.371144893187534],[41.983651503264944,34.371458773952178],[41.983890649454914,34.371425059566114],[41.983909297464102,34.37151594515602],[41.984243118116993,34.371464084203673],[41.984317732594114,34.371758901002053],[41.983359331443026,34.371932358701741],[41.983324899955335,34.371933946883864],[41.983307894175141,34.371931329492725],[41.983276442902145,34.371919605324038],[41.983262794966777,34.371910794576365],[41.983251004931326,34.3719003006739],[41.983234144075368,34.371875358593527],[41.983227052933181,34.371851122825554],[41.983145837145329,34.371505082507717],[41.983115974750376,34.371444044090985],[41.983079383068059,34.371390227716347]]]},"properties":{"OBJECTID":130,"OID_":null,"Shape_Leng":null,"Name":null,"اسم_المؤسس":null,"type":null,"TYPECODE":null,"Area":null,"AreaH":null,"Shape_Length":361.68225624082368,"Shape_Area":5973.1099022953586}},{"type":"Feature","id":131,"geometry":{"type":"Polygon","coordinates":[[[41.984813604315278,34.371067370652682],[41.983673801794446,34.371296277888852],[41.983619093407263,34.371099703359882],[41.983245239139102,34.370891003350536],[41.983843138048606,34.370793158615569],[41.983771975915047,34.370531586113245],[41.984162818288482,34.369983977158903],[41.984185691053597,34.369801858142225],[41.984456891466664,34.369468980363244],[41.984424501210277,34.369334306238251],[41.98461992537878,34.369072107642253],[41.984683753823248,34.369091076092268],[41.984749209893955,34.369103298008149],[41.984815582545522,34.369108640623942],[41.984882150775817,34.369107045903149],[41.984948191458159,34.369098531169115],[41.985106331645206,34.369707930277357],[41.98564323854464,34.369600151536673],[41.985701495567248,34.36981338718045],[41.984531591887141,34.370021979478651],[41.984812835692097,34.371064521189247],[41.984813604315278,34.371067370652682]]]},"properties":{"OBJECTID":131,"OID_":null,"Shape_Leng":null,"Name":null,"اسم_المؤسس":null,"type":null,"TYPECODE":null,"Area":null,"AreaH":null,"Shape_Length":846.79050968031311,"Shape_Area":18467.979968600681}},{"type":"Feature","id":132,"geometry":{"type":"Polygon","coordinates":[[[41.983171405169607,34.352884473361392],[41.982692075546922,34.353459525554555],[41.982334624887486,34.35325457907723],[41.981616139817802,34.352842624862468],[41.982052874128598,34.352324327651253],[41.982204352805148,34.352304033535937],[41.982819290541691,34.352673130726053],[41.983171405169607,34.352884473361392]]]},"properties":{"OBJECTID":132,"OID_":null,"Shape_Leng":null,"Name":null,"اسم_المؤسس":null,"type":null,"TYPECODE":null,"Area":null,"AreaH":null,"Shape_Length":392.17846659232083,"Shape_Area":9431.3887790893987}},{"type":"Feature","id":133,"geometry":{"type":"Polygon","coordinates":[[[41.983687726707821,34.364173246570644],[41.98414090831109,34.364398449404881],[41.982905993477544,34.366122848597342],[41.982026691716449,34.365661934757981],[41.983006392487944,34.364375561347096],[41.983034193291893,34.364346907635856],[41.983066621840706,34.364321821419985],[41.983103020054152,34.364300810908027],[41.983142649774301,34.364284302432679],[41.983184706596305,34.364272632001253],[41.983406085335865,34.364228893658357],[41.982870403835747,34.364979815461091],[41.983333458028582,34.365215410522389],[41.98388665184563,34.364439933753168],[41.983453461151271,34.364219533445905],[41.983479851902743,34.364214318671557],[41.983687726707821,34.364173246570644]],[[41.983247562607204,34.365330267280648],[41.982788349519652,34.365089556568158],[41.982401104533757,34.365632387887075],[41.982860318621597,34.365873099966009],[41.983247562607204,34.365330267280648]]]},"properties":{"OBJECTID":133,"OID_":0,"Shape_Leng":2337.9977836899998,"Name":"مباني عامة","اسم_المؤسس":" ","type":"Adminstration","TYPECODE":"Adminstration","Area":0.064669938524800005,"AreaH":6.4669938524799999,"Shape_Length":1132.9446515217376,"Shape_Area":11176.10544838991}},{"type":"Feature","id":134,"geometry":{"type":"Polygon","coordinates":[[[41.991491806100562,34.367511270835401],[41.99143496186386,34.367568767419989],[41.990961258923313,34.367653630816342],[41.990911564978646,34.367619665911306],[41.990805925685571,34.367232970242554],[41.990923740416072,34.367210839664317],[41.991020712571228,34.367259580282372],[41.991427446698708,34.367187291459942],[41.991491806100562,34.367511270835401]]]},"properties":{"OBJECTID":134,"OID_":null,"Shape_Leng":null,"Name":null,"اسم_المؤسس":null,"type":null,"TYPECODE":null,"Area":null,"AreaH":null,"Shape_Length":199.06746882145848,"Shape_Area":2396.2287920812546}},{"type":"Feature","id":135,"geometry":{"type":"Polygon","coordinates":[[[41.994178598090052,34.374037685484772],[41.993940602068591,34.373847261069862],[41.994497144053717,34.37335843343314],[41.994709811531017,34.373526065361609],[41.994178598090052,34.374037685484772]]]},"properties":{"OBJECTID":135,"OID_":null,"Shape_Leng":null,"Name":null,"اسم_المؤسس":null,"type":null,"TYPECODE":null,"Area":null,"AreaH":null,"Shape_Length":206.9790262551615,"Shape_Area":2145.8126083426746}},{"type":"Feature","id":136,"geometry":{"type":"Polygon","coordinates":[[[41.969676500307017,34.374745311237575],[41.967271954809348,34.377903444586074],[41.963943971167133,34.378127105857018],[41.965778736254606,34.37572100392665],[41.967428361120206,34.373560224238538],[41.969676500307017,34.374745311237575]]]},"properties":{"OBJECTID":136,"OID_":null,"Shape_Leng":null,"Name":null,"اسم_المؤسس":null,"type":null,"TYPECODE":null,"Area":null,"AreaH":null,"Shape_Length":1566.6862703167501,"Shape_Area":124467.02137908153}},{"type":"Feature","id":137,"geometry":{"type":"Polygon","coordinates":[[[41.955221817074978,34.36905038111567],[41.954989480901702,34.369354974399101],[41.954461444333219,34.369078031846122],[41.954460984724989,34.369077790558109],[41.954693322199205,34.368773198208231],[41.95469378072017,34.368773439521661],[41.955221817074978,34.36905038111567]]]},"properties":{"OBJECTID":137,"OID_":null,"Shape_Leng":null,"Name":null,"اسم_المؤسس":null,"type":null,"TYPECODE":null,"Area":null,"AreaH":null,"Shape_Length":195.09991991731349,"Shape_Area":2301.9964383055576}},{"type":"Feature","id":138,"geometry":{"type":"Polygon","coordinates":[[[41.954693322199205,34.368773198208231],[41.954460984724989,34.369077790558109],[41.953933410057132,34.368801086846176],[41.95416574879831,34.368496494527591],[41.954693322199205,34.368773198208231]]]},"properties":{"OBJECTID":138,"OID_":null,"Shape_Leng":null,"Name":null,"اسم_المؤسس":null,"type":null,"TYPECODE":null,"Area":null,"AreaH":null,"Shape_Length":194.89997468651819,"Shape_Area":2297.9998687871871}},{"type":"Feature","id":139,"geometry":{"type":"Polygon","coordinates":[[[41.978776724568597,34.376177880066408],[41.979464757351813,34.37655272467272],[41.97907665405895,34.377114733963211],[41.979043703833625,34.37704710490506],[41.978984959426512,34.37694449298418],[41.97886290601997,34.37678767590954],[41.97871803117193,34.37663618391008],[41.978547856264875,34.376479615726105],[41.978776724568597,34.376177880066408]]]},"properties":{"OBJECTID":139,"OID_":null,"Shape_Leng":null,"Name":null,"اسم_المؤسس":null,"type":null,"TYPECODE":null,"Area":null,"AreaH":null,"Shape_Length":273.4645672464398,"Shape_Area":4033.2566415143356}},{"type":"Feature","id":140,"geometry":{"type":"Polygon","coordinates":[[[41.983872885670237,34.356479389597119],[41.983409541139565,34.357035249970174],[41.982013390976022,34.356491918802867],[41.98262176251589,34.355762088935364],[41.983872885670237,34.356479389597119]]]},"properties":{"OBJECTID":140,"OID_":null,"Shape_Leng":null,"Name":null,"اسم_المؤسس":null,"type":null,"TYPECODE":null,"Area":null,"AreaH":null,"Shape_Length":455.4282590798382,"Shape_Area":12143.175204556794}},{"type":"Feature","id":141,"geometry":{"type":"Polygon","coordinates":[[[41.985098938786216,34.355008487011148],[41.984514721374424,34.355709383159109],[41.983542062110658,34.355151736000273],[41.983529179244904,34.35513813556085],[41.983518690561198,34.355122613715054],[41.983510877715553,34.355105587276036],[41.983505950508835,34.355087513460262],[41.983504041252928,34.355068877609746],[41.983505201217696,34.355050180158997],[41.983512793910627,34.355009438976396],[41.983515401834708,34.354968078467721],[41.983512986677219,34.354926706255313],[41.983505583918969,34.354885930133428],[41.983493302312993,34.354846349139244],[41.983486272086076,34.354817304597439],[41.983484023452839,34.35478750605472],[41.983486615416389,34.354757735411056],[41.983493979964798,34.354728773834339],[41.983505923855731,34.35470138126292],[41.983847828973218,34.354291198155771],[41.985098938786216,34.355008487011148]]]},"properties":{"OBJECTID":141,"OID_":null,"Shape_Leng":null,"Name":null,"اسم_المؤسس":null,"type":null,"TYPECODE":null,"Area":null,"AreaH":null,"Shape_Length":450.22227390462456,"Shape_Area":12719.704852171984}},{"type":"Feature","id":142,"geometry":{"type":"Polygon","coordinates":[[[41.981204922010434,34.355243599780067],[41.980617257919455,34.355948570698047],[41.979405707082933,34.355477039929717],[41.979563573241819,34.355278422032072],[41.980118057022231,34.354620428437244],[41.981204922010434,34.355243599780067]]]},"properties":{"OBJECTID":142,"OID_":null,"Shape_Leng":null,"Name":null,"اسم_المؤسس":null,"type":null,"TYPECODE":null,"Area":null,"AreaH":null,"Shape_Length":455.43074061427643,"Shape_Area":12833.37096825429}},{"type":"Feature","id":143,"geometry":{"type":"Polygon","coordinates":[[[41.982277294777212,34.355858443809204],[41.981813942344587,34.356414298553332],[41.980617257919455,34.355948570698047],[41.981204922010434,34.355243599780067],[41.982277294777212,34.355858443809204]]]},"properties":{"OBJECTID":143,"OID_":null,"Shape_Leng":null,"Name":null,"اسم_المؤسس":null,"type":null,"TYPECODE":null,"Area":null,"AreaH":null,"Shape_Length":411.79574759900447,"Shape_Area":10207.237247373903}},{"type":"Feature","id":144,"geometry":{"type":"Polygon","coordinates":[[[41.980118057022231,34.354620428437244],[41.980584812495579,34.354066530596384],[41.981668271726647,34.3546877483072],[41.981204922010434,34.355243599780067],[41.980118057022231,34.354620428437244]]]},"properties":{"OBJECTID":144,"OID_":null,"Shape_Leng":null,"Name":null,"اسم_المؤسس":null,"type":null,"TYPECODE":null,"Area":null,"AreaH":null,"Shape_Length":392.86697525702789,"Shape_Area":9107.4716051588075}},{"type":"Feature","id":145,"geometry":{"type":"Polygon","coordinates":[[[41.984391163437081,34.355857616882311],[41.984348578979571,34.35590870485786],[41.983872885670237,34.356479389597119],[41.98262176251589,34.355762088935364],[41.982885888979524,34.355445226960278],[41.982914915281405,34.355422352887011],[41.982946772305773,34.355403621111137],[41.98298087290771,34.355389376871024],[41.983016588591759,34.35537988269693],[41.983053261095492,34.355375313572445],[41.983116158871134,34.355368799317553],[41.983177930971685,34.355355279950309],[41.983237799735818,34.355334925668721],[41.983295011463682,34.355307992716924],[41.983327804920762,34.355298894000015],[41.983361663352461,34.355295458293398],[41.983395616086213,34.355297784093842],[41.983428689745956,34.355305804723983],[41.984391163437081,34.355857616882311]]]},"properties":{"OBJECTID":145,"OID_":null,"Shape_Leng":null,"Name":null,"اسم_المؤسس":null,"type":null,"TYPECODE":null,"Area":null,"AreaH":null,"Shape_Length":428.42180904781475,"Shape_Area":11204.183309560534}},{"type":"Feature","id":146,"geometry":{"type":"Polygon","coordinates":[[[41.983847828973218,34.354291198155771],[41.984403821124182,34.353624164239406],[41.985553298742943,34.354314052677204],[41.985574490773274,34.354437949132645],[41.985098938786216,34.355008487011148],[41.983847828973218,34.354291198155771]]]},"properties":{"OBJECTID":146,"OID_":null,"Shape_Leng":null,"Name":null,"اسم_المؤسس":null,"type":null,"TYPECODE":null,"Area":null,"AreaH":null,"Shape_Length":451.47497330247381,"Shape_Area":12341.385932262649}},{"type":"Feature","id":147,"geometry":{"type":"Polygon","coordinates":[[[41.982692075546922,34.353459525554555],[41.98222873799623,34.354015381225281],[41.981871286982518,34.353810433446725],[41.981149397624009,34.35339652602822],[41.981616139817802,34.352842624862468],[41.982334624887486,34.35325457907723],[41.982692075546922,34.353459525554555]]]},"properties":{"OBJECTID":147,"OID_":null,"Shape_Leng":null,"Name":null,"اسم_المؤسس":null,"type":null,"TYPECODE":null,"Area":null,"AreaH":null,"Shape_Length":391.18538252929437,"Shape_Area":9044.4134360938751}},{"type":"Feature","id":148,"geometry":{"type":"Polygon","coordinates":[[[41.983171405169607,34.352884473361392],[41.983523522649328,34.353095815757293],[41.98422776057501,34.353518495460037],[41.983764434413608,34.354074356408411],[41.983049526790161,34.353664470015055],[41.982692075546922,34.353459525554555],[41.983171405169607,34.352884473361392]]]},"properties":{"OBJECTID":148,"OID_":null,"Shape_Leng":null,"Name":null,"اسم_المؤسس":null,"type":null,"TYPECODE":null,"Area":null,"AreaH":null,"Shape_Length":392.61774691859131,"Shape_Area":9155.3866299131132}},{"type":"Feature","id":149,"geometry":{"type":"Polygon","coordinates":[[[41.999332625404719,34.36027756209316],[41.998649901260549,34.361498385864515],[41.998086186849214,34.361277802264446],[41.997768274861883,34.361859707987293],[41.99410612442307,34.360443353880783],[41.995116402617668,34.358646933558276],[41.999301107805792,34.360265373084097],[41.999332625404719,34.36027756209316]]]},"properties":{"OBJECTID":149,"OID_":null,"Shape_Leng":null,"Name":null,"اسم_المؤسس":null,"type":null,"TYPECODE":null,"Area":null,"AreaH":null,"Shape_Length":1297.7590790505017,"Shape_Area":90217.442340403606}},{"type":"Feature","id":150,"geometry":{"type":"Polygon","coordinates":[[[41.952922905834406,34.366282041597429],[41.952632482080098,34.3666627781244],[41.952210072383224,34.366441213217605],[41.952500497468577,34.366060478523977],[41.952922905834406,34.366282041597429]]]},"properties":{"OBJECTID":150,"OID_":null,"Shape_Leng":null,"Name":null,"اسم_المؤسس":null,"type":null,"TYPECODE":null,"Area":null,"AreaH":null,"Shape_Length":192.00002282594753,"Shape_Area":2300.0005298247052}},{"type":"Feature","id":151,"geometry":{"type":"Polygon","coordinates":[[[41.970201230384291,34.372516647401518],[41.969908589984023,34.372896219613253],[41.96945081809158,34.372653569808385],[41.969743458763062,34.372273997742312],[41.970201230384291,34.372516647401518]]]},"properties":{"OBJECTID":151,"OID_":null,"Shape_Leng":null,"Name":null,"اسم_المؤسس":null,"type":null,"TYPECODE":null,"Area":null,"AreaH":null,"Shape_Length":199.99992965895808,"Shape_Area":2499.9982414717606}},{"type":"Feature","id":152,"geometry":{"type":"Polygon","coordinates":[[[41.974751699497567,34.363815429288103],[41.974409400358944,34.364277885510475],[41.973946400955697,34.36404221830982],[41.974287427900883,34.36358148348301],[41.974751699497567,34.363815429288103]]]},"properties":{"OBJECTID":152,"OID_":null,"Shape_Leng":null,"Name":null,"اسم_المؤسس":null,"type":null,"TYPECODE":null,"Area":null,"AreaH":null,"Shape_Length":220.22451012947906,"Shape_Area":3005.6003937259775}},{"type":"Feature","id":153,"geometry":{"type":"Polygon","coordinates":[[[41.974409400358944,34.364277885510475],[41.974182047863422,34.364585042129391],[41.973719047306538,34.364349375033008],[41.973946400955697,34.36404221830982],[41.974409400358944,34.364277885510475]]]},"properties":{"OBJECTID":153,"OID_":null,"Shape_Leng":null,"Name":null,"اسم_المؤسس":null,"type":null,"TYPECODE":null,"Area":null,"AreaH":null,"Shape_Length":179.99993661465081,"Shape_Area":1999.9987917403487}},{"type":"Feature","id":154,"geometry":{"type":"Polygon","coordinates":[[[41.974751699497567,34.363815429288103],[41.975169536883563,34.364025974148376],[41.974826101859961,34.364489984281057],[41.974604980861429,34.364377435208873],[41.974409400358944,34.364277885510475],[41.974751699497567,34.363815429288103]]]},"properties":{"OBJECTID":154,"OID_":null,"Shape_Leng":null,"Name":null,"اسم_المؤسس":null,"type":null,"TYPECODE":null,"Area":null,"AreaH":null,"Shape_Length":210.6491451070483,"Shape_Area":2714.5881184915106}},{"type":"Feature","id":155,"geometry":{"type":"Polygon","coordinates":[[[41.974355632638215,34.363489336428472],[41.974668237734448,34.363066995387967],[41.976585668111362,34.364092576527682],[41.976438439191284,34.364281869516851],[41.976020922951577,34.364359955754665],[41.974355632638215,34.363489336428472]]]},"properties":{"OBJECTID":155,"OID_":null,"Shape_Leng":null,"Name":null,"اسم_المؤسس":null,"type":null,"TYPECODE":null,"Area":null,"AreaH":null,"Shape_Length":510.57702509589842,"Shape_Area":10903.849726213721}},{"type":"Feature","id":156,"geometry":{"type":"Polygon","coordinates":[[[41.975337816234848,34.364487590874781],[41.974960065178287,34.364558170069323],[41.974826101859961,34.364489984281057],[41.975169536883563,34.364025974148376],[41.975539942555514,34.36421449943014],[41.975337816234848,34.364487590874781]]]},"properties":{"OBJECTID":156,"OID_":null,"Shape_Leng":null,"Name":null,"اسم_المؤسس":null,"type":null,"TYPECODE":null,"Area":null,"AreaH":null,"Shape_Length":186.09408382368969,"Shape_Area":2099.6210654229858}},{"type":"Feature","id":157,"geometry":{"type":"Polygon","coordinates":[[[41.988636465167446,34.35841147640955],[41.988817047578493,34.358487122380581],[41.989010999432494,34.358568368882473],[41.988786565477739,34.358928573403311],[41.988592614041686,34.358847326554937],[41.988405960449093,34.358769137062787],[41.988636465167446,34.35841147640955]]]},"properties":{"OBJECTID":157,"OID_":null,"Shape_Leng":null,"Name":null,"اسم_المؤسس":null,"type":null,"TYPECODE":null,"Area":null,"AreaH":null,"Shape_Length":167.87971393568989,"Shape_Area":1751.9913857537967}},{"type":"Feature","id":158,"geometry":{"type":"Polygon","coordinates":[[[41.988405960449093,34.358769137062787],[41.988592614041686,34.358847326554937],[41.988786565477739,34.358928573403311],[41.988562130707109,34.359288775766601],[41.988368178667038,34.359207530399509],[41.98817545385144,34.359126797365867],[41.988405960449093,34.358769137062787]]]},"properties":{"OBJECTID":158,"OID_":null,"Shape_Leng":null,"Name":null,"اسم_المؤسس":null,"type":null,"TYPECODE":null,"Area":null,"AreaH":null,"Shape_Length":169.13131683484488,"Shape_Area":1780.1540495637028}},{"type":"Feature","id":159,"geometry":{"type":"Polygon","coordinates":[[[41.989204948386153,34.358649615135541],[41.989398898751318,34.358730860133001],[41.989174467154569,34.359091063465961],[41.988980517239348,34.359009819022624],[41.988786565477739,34.358928573403311],[41.989010999432494,34.358568368882473],[41.989204948386153,34.358649615135541]]]},"properties":{"OBJECTID":159,"OID_":null,"Shape_Leng":null,"Name":null,"اسم_المؤسس":null,"type":null,"TYPECODE":null,"Area":null,"AreaH":null,"Shape_Length":169.9998358818049,"Shape_Area":1799.9188562867428}},{"type":"Feature","id":160,"geometry":{"type":"Polygon","coordinates":[[[41.988980517239348,34.359009819022624],[41.989174467154569,34.359091063465961],[41.988950033751998,34.359451267369735],[41.988756082082766,34.359370022632987],[41.988562130707109,34.359288775766601],[41.988786565477739,34.358928573403311],[41.988980517239348,34.359009819022624]]]},"properties":{"OBJECTID":160,"OID_":null,"Shape_Leng":null,"Name":null,"اسم_المؤسس":null,"type":null,"TYPECODE":null,"Area":null,"AreaH":null,"Shape_Length":169.99974012574472,"Shape_Area":1799.9202845393165}},{"type":"Feature","id":161,"geometry":{"type":"Polygon","coordinates":[[[41.989532856344091,34.357020570296392],[41.989689829761993,34.357086326072938],[41.989883776814253,34.357167570483192],[41.989659350038231,34.35752777718703],[41.989465402317968,34.357446532456876],[41.989302357879794,34.357378233238371],[41.989532856344091,34.357020570296392]]]},"properties":{"OBJECTID":161,"OID_":null,"Shape_Leng":null,"Name":null,"اسم_المؤسس":null,"type":null,"TYPECODE":null,"Area":null,"AreaH":null,"Shape_Length":163.01088641671942,"Shape_Area":1642.4467861222413}},{"type":"Feature","id":162,"geometry":{"type":"Polygon","coordinates":[[[41.990077725309995,34.357248814538444],[41.990271673077302,34.357330058291829],[41.990047246551363,34.357690265662036],[41.989853298116024,34.35760902158875],[41.989659350038231,34.35752777718703],[41.989883776814253,34.357167570483192],[41.990077725309995,34.357248814538444]]]},"properties":{"OBJECTID":162,"OID_":null,"Shape_Leng":null,"Name":null,"اسم_المؤسس":null,"type":null,"TYPECODE":null,"Area":null,"AreaH":null,"Shape_Length":170.00045847197322,"Shape_Area":1799.9336386649079}},{"type":"Feature","id":163,"geometry":{"type":"Polygon","coordinates":[[[41.989706686156723,34.356750837406672],[41.989858497461292,34.356815612254756],[41.990051700551525,34.356898048210418],[41.989883776814253,34.357167570483192],[41.989689829761993,34.357086326072938],[41.989532856312088,34.357020569395786],[41.989706686156723,34.356750837406672]]]},"properties":{"OBJECTID":163,"OID_":null,"Shape_Leng":null,"Name":null,"اسم_المؤسس":null,"type":null,"TYPECODE":null,"Area":null,"AreaH":null,"Shape_Length":139.51644785200185,"Shape_Area":1215.2726791836906}},{"type":"Feature","id":164,"geometry":{"type":"Polygon","coordinates":[[[41.990244905153638,34.35698048561445],[41.990438110053653,34.357062920890947],[41.990271671991351,34.357330058318382],[41.990077724224037,34.35724881456499],[41.989883776814253,34.357167570483192],[41.990051700583535,34.356898049111045],[41.990244905153638,34.35698048561445]]]},"properties":{"OBJECTID":164,"OID_":null,"Shape_Leng":null,"Name":null,"اسم_المؤسس":null,"type":null,"TYPECODE":null,"Area":null,"AreaH":null,"Shape_Length":147.04244430880721,"Shape_Area":1340.8236436533466}},{"type":"Feature","id":165,"geometry":{"type":"Polygon","coordinates":[[[41.994242483878473,34.371506130978595],[41.994094831393816,34.371638240961843],[41.994094526091757,34.371638001456965],[41.994242483878473,34.371506130978595]]]},"properties":{"OBJECTID":165,"OID_":null,"Shape_Leng":null,"Name":null,"اسم_المؤسس":null,"type":null,"TYPECODE":null,"Area":null,"AreaH":null,"Shape_Length":40.020281292399126,"Shape_Area":0.38659309151340437}},{"type":"Feature","id":166,"geometry":{"type":"Polygon","coordinates":[[[41.981501221440674,34.373678514382043],[41.981258768861139,34.373714756674289],[41.980944385651142,34.372576950885133],[41.981198204215225,34.372527287210282],[41.981501221440674,34.373678514382043]]]},"properties":{"OBJECTID":166,"OID_":null,"Shape_Leng":null,"Name":null,"اسم_المؤسس":null,"type":null,"TYPECODE":null,"Area":null,"AreaH":null,"Shape_Length":307.00532995465653,"Shape_Area":3036.1274772945649}},{"type":"Feature","id":167,"geometry":{"type":"Polygon","coordinates":[[[41.996241353437007,34.346605777409444],[41.996625162739242,34.346009712494336],[41.997774987897323,34.346519059504018],[41.997391183855967,34.347115126807232],[41.996241353437007,34.346605777409444]]]},"properties":{"OBJECTID":167,"OID_":null,"Shape_Leng":null,"Name":null,"اسم_المؤسس":null,"type":null,"TYPECODE":null,"Area":null,"AreaH":null,"Shape_Length":390.00084342079987,"Shape_Area":9000.0387320497703}},{"type":"Feature","id":168,"geometry":{"type":"Polygon","coordinates":[[[41.988734708495848,34.354630162851684],[41.986252252295785,34.358482025881322],[41.984481999899202,34.357557330673181],[41.984242431618135,34.357426115441775],[41.983999957598691,34.357300350787995],[41.983754701830236,34.357180101021726],[41.985943714370748,34.354547086824638],[41.986866102739597,34.355101940990131],[41.987587912878645,34.354197815995462],[41.988734708495848,34.354630162851684]]]},"properties":{"OBJECTID":168,"OID_":null,"Shape_Leng":null,"Name":null,"اسم_المؤسس":null,"type":null,"TYPECODE":null,"Area":null,"AreaH":null,"Shape_Length":1452.440610862313,"Shape_Area":103423.92044662315}},{"type":"Feature","id":169,"geometry":{"type":"Polygon","coordinates":[[[41.998547756841155,34.356408031738781],[42.001670718614911,34.35778903709879],[42.001287771259129,34.358448893873813],[41.998042030318913,34.357194573888791],[41.998547756841155,34.356408031738781]]]},"properties":{"OBJECTID":169,"OID_":null,"Shape_Leng":null,"Name":null,"اسم_المؤسس":null,"type":null,"TYPECODE":null,"Area":null,"AreaH":null,"Shape_Length":835.57653457331753,"Shape_Area":29507.997312437492}},{"type":"Feature","id":170,"geometry":{"type":"Polygon","coordinates":[[[41.998547756841155,34.356408031738781],[41.998042030318913,34.357194573888791],[41.997057292530357,34.356813995887833],[41.997591145638708,34.355984982594627],[41.998547756841155,34.356408031738781]]]},"properties":{"OBJECTID":170,"OID_":null,"Shape_Leng":null,"Name":null,"اسم_المؤسس":null,"type":null,"TYPECODE":null,"Area":null,"AreaH":null,"Shape_Length":403.03296558197695,"Shape_Area":10144.036151878488}},{"type":"Feature","id":171,"geometry":{"type":"Polygon","coordinates":[[[41.946327747167373,34.351544427268998],[41.946768357790475,34.351279052293336],[41.947654655463985,34.35214500593073],[41.947230786694682,34.352426743239505],[41.946327747167373,34.351544427268998]]]},"properties":{"OBJECTID":171,"OID_":null,"Shape_Leng":null,"Name":null,"اسم_المؤسس":null,"type":null,"TYPECODE":null,"Area":null,"AreaH":null,"Shape_Length":354.63569922810581,"Shape_Area":6360.262460776943}},{"type":"Feature","id":172,"geometry":{"type":"Polygon","coordinates":[[[41.968140297897499,34.341733894762385],[41.966978711752894,34.343749583957205],[41.962938319809048,34.34211221592038],[41.965509581647012,34.340675252110742],[41.968140297897499,34.341733894762385]]]},"properties":{"OBJECTID":172,"OID_":null,"Shape_Leng":null,"Name":null,"اسم_المؤسس":null,"type":null,"TYPECODE":null,"Area":null,"AreaH":null,"Shape_Length":1216.54197197498,"Shape_Area":84541.364149657849}},{"type":"Feature","id":173,"geometry":{"type":"Polygon","coordinates":[[[41.974208634648583,34.362831230149574],[41.974548426260689,34.363009381780749],[41.974088596440865,34.363612509853503],[41.973748803202689,34.363434357935624],[41.974208634648583,34.362831230149574]]]},"properties":{"OBJECTID":173,"OID_":0,"Shape_Leng":538.39195044899998,"Name":"مباني عامة","اسم_المؤسس":" ","type":"Green area","TYPECODE":"GreenArea","Area":0.0150472366646,"AreaH":1.5047236664600001,"Shape_Length":232.39192853725845,"Shape_Area":2930.2499783161143}},{"type":"Feature","id":174,"geometry":{"type":"Polygon","coordinates":[[[41.988192748629089,34.361389269226258],[41.988501294097873,34.361614900818324],[41.988162114437294,34.361966801293917],[41.988562695092035,34.36225722660518],[41.988511458649668,34.362503371076748],[41.987976177992032,34.362426511254455],[41.988192748629089,34.361389269226258]]]},"properties":{"OBJECTID":174,"OID_":null,"Shape_Leng":null,"Name":null,"اسم_المؤسس":null,"type":null,"TYPECODE":null,"Area":null,"AreaH":null,"Shape_Length":331.39327333342271,"Shape_Area":3331.4853074170023}},{"type":"Feature","id":175,"geometry":{"type":"Polygon","coordinates":[[[41.988734708495848,34.354630162851684],[41.990219799747535,34.355190026538445],[41.987638035526835,34.35919608960171],[41.987539792636568,34.359139431211283],[41.987426675009765,34.359095462595825],[41.986252252295785,34.358482025881322],[41.988734708495848,34.354630162851684]]]},"properties":{"OBJECTID":175,"OID_":null,"Shape_Leng":null,"Name":null,"اسم_المؤسس":null,"type":null,"TYPECODE":null,"Area":null,"AreaH":null,"Shape_Length":1289.3136349890949,"Shape_Area":74140.505598466363}},{"type":"Feature","id":176,"geometry":{"type":"Polygon","coordinates":[[[41.991491806100562,34.367511270835401],[41.990805621856126,34.367649916111972],[41.990679581583059,34.367220977189199],[41.990943497986819,34.367167652228964],[41.990996979062857,34.367198567045847],[41.991026560365889,34.367299236285895],[41.991454104218789,34.367212849053836],[41.991491806100562,34.367511270835401]]]},"properties":{"OBJECTID":176,"OID_":null,"Shape_Leng":null,"Name":null,"اسم_المؤسس":null,"type":null,"TYPECODE":null,"Area":null,"AreaH":null,"Shape_Length":230.3025382689768,"Shape_Area":2673.3883379306076}}]}